{
  "type": "FeatureCollection",
  "features": [
    {
      "type": "Feature",
      "properties": {
        "norad_id": 64694,
        "name": "GOSAT-GW (IBUKI GW)",
        "group": "resource",
        "lat": -41.55467897381569,
        "lon": -56.318269931620556,
        "alt_km": 675.9920497676449,
        "timestamp": "2025-12-27T05:29:38.852200+00:00",
        "meta_object_name": "GOSAT-GW (IBUKI GW)",
        "meta_object_id": "2025-141A",
        "meta_epoch": "2025-12-26T23:08:24.232704",
        "meta_mean_motion": 14.67564798,
        "meta_eccentricity": 0.00014235,
        "meta_inclination": 98.0441,
        "meta_ra_of_asc_node": 296.2203,
        "meta_arg_of_pericenter": 82.099,
        "meta_mean_anomaly": 278.0376,
        "meta_ephemeris_type": 0,
        "meta_classification_type": "U",
        "meta_norad_cat_id": 64694,
        "meta_element_set_no": 999,
        "meta_rev_at_epoch": 2658,
        "meta_bstar": 0.00022516974,
        "meta_mean_motion_dot": 1.23e-05,
        "meta_mean_motion_ddot": 0,
        "tle_line1": "1 64694U 25141A   25360.96416936  .00001230  00000+0  22517-3 0  9997",
        "tle_line2": "2 64694  98.0441 296.2203 0001423  82.0990 278.0376 14.67564798 26580"
      },
      "geometry": {
        "type": "Point",
        "coordinates": [
          -56.318269931620556,
          -41.55467897381569
        ]
      }
    },
    {
      "type": "Feature",
      "properties": {
        "norad_id": 64876,
        "name": "IONOSFERA-M 3",
        "group": "resource",
        "lat": 75.91087029944812,
        "lon": -74.29500150253938,
        "alt_km": 812.3276254988796,
        "timestamp": "2025-12-27T05:29:38.852210+00:00",
        "meta_object_name": "IONOSFERA-M 3",
        "meta_object_id": "2025-155A",
        "meta_epoch": "2025-12-27T00:03:24.617664",
        "meta_mean_motion": 14.21444603,
        "meta_eccentricity": 0.00017685,
        "meta_inclination": 98.5802,
        "meta_ra_of_asc_node": 322.4661,
        "meta_arg_of_pericenter": 36.6882,
        "meta_mean_anomaly": 323.4416,
        "meta_ephemeris_type": 0,
        "meta_classification_type": "U",
        "meta_norad_cat_id": 64876,
        "meta_element_set_no": 999,
        "meta_rev_at_epoch": 2194,
        "meta_bstar": 7.2910475e-05,
        "meta_mean_motion_dot": 1.17e-06,
        "meta_mean_motion_ddot": 0,
        "tle_line1": "1 64876U 25155A   25361.00236826  .00000117  00000+0  72910-4 0  9994",
        "tle_line2": "2 64876  98.5802 322.4661 0001768  36.6882 323.4416 14.21444603 21942"
      },
      "geometry": {
        "type": "Point",
        "coordinates": [
          -74.29500150253938,
          75.91087029944812
        ]
      }
    },
    {
      "type": "Feature",
      "properties": {
        "norad_id": 64877,
        "name": "IONOSFERA-M 4",
        "group": "resource",
        "lat": -76.48770496946256,
        "lon": 103.68194249302825,
        "alt_km": 828.5442435850355,
        "timestamp": "2025-12-27T05:29:38.852221+00:00",
        "meta_object_name": "IONOSFERA-M 4",
        "meta_object_id": "2025-155B",
        "meta_epoch": "2025-12-26T23:12:31.632192",
        "meta_mean_motion": 14.21445772,
        "meta_eccentricity": 0.00012256,
        "meta_inclination": 98.5803,
        "meta_ra_of_asc_node": 322.3511,
        "meta_arg_of_pericenter": 50.605,
        "meta_mean_anomaly": 309.5237,
        "meta_ephemeris_type": 0,
        "meta_classification_type": "U",
        "meta_norad_cat_id": 64877,
        "meta_element_set_no": 999,
        "meta_rev_at_epoch": 2193,
        "meta_bstar": 7.316352e-05,
        "meta_mean_motion_dot": 1.17e-06,
        "meta_mean_motion_ddot": 0,
        "tle_line1": "1 64877U 25155B   25360.96703278  .00000117  00000+0  73164-4 0  9991",
        "tle_line2": "2 64877  98.5803 322.3511 0001225  50.6050 309.5237 14.21445772 21931"
      },
      "geometry": {
        "type": "Point",
        "coordinates": [
          103.68194249302825,
          -76.48770496946256
        ]
      }
    },
    {
      "type": "Feature",
      "properties": {
        "norad_id": 64899,
        "name": "MICROCARB",
        "group": "resource",
        "lat": 9.175019927889926,
        "lon": -102.35721301598643,
        "alt_km": 651.7461000812973,
        "timestamp": "2025-12-27T05:29:38.852232+00:00",
        "meta_object_name": "MICROCARB",
        "meta_object_id": "2025-156A",
        "meta_epoch": "2025-12-26T22:11:52.679328",
        "meta_mean_motion": 14.72080413,
        "meta_eccentricity": 0.00176706,
        "meta_inclination": 98.0009,
        "meta_ra_of_asc_node": 76.042,
        "meta_arg_of_pericenter": 102.3333,
        "meta_mean_anomaly": 257.9854,
        "meta_ephemeris_type": 0,
        "meta_classification_type": "U",
        "meta_norad_cat_id": 64899,
        "meta_element_set_no": 999,
        "meta_rev_at_epoch": 2262,
        "meta_bstar": 0.00014636085,
        "meta_mean_motion_dot": 8.73e-06,
        "meta_mean_motion_ddot": 0,
        "tle_line1": "1 64899U 25156A   25360.92491527  .00000873  00000+0  14636-3 0  9990",
        "tle_line2": "2 64899  98.0009  76.0420 0017670 102.3333 257.9854 14.72080413 22621"
      },
      "geometry": {
        "type": "Point",
        "coordinates": [
          -102.35721301598643,
          9.175019927889926
        ]
      }
    },
    {
      "type": "Feature",
      "properties": {
        "norad_id": 64900,
        "name": "CO3D 3",
        "group": "resource",
        "lat": -18.255451719945523,
        "lon": -105.08020389733885,
        "alt_km": 510.92180411809295,
        "timestamp": "2025-12-27T05:29:38.852242+00:00",
        "meta_object_name": "CO3D 3",
        "meta_object_id": "2025-156B",
        "meta_epoch": "2025-12-26T23:53:07.493568",
        "meta_mean_motion": 15.20210664,
        "meta_eccentricity": 0.0001293,
        "meta_inclination": 97.4345,
        "meta_ra_of_asc_node": 77.1581,
        "meta_arg_of_pericenter": 66.9579,
        "meta_mean_anomaly": 293.1793,
        "meta_ephemeris_type": 0,
        "meta_classification_type": "U",
        "meta_norad_cat_id": 64900,
        "meta_element_set_no": 999,
        "meta_rev_at_epoch": 2337,
        "meta_bstar": 2.1573252e-05,
        "meta_mean_motion_dot": 4e-06,
        "meta_mean_motion_ddot": 0,
        "tle_line1": "1 64900U 25156B   25360.99522562  .00000400  00000+0  21573-4 0  9999",
        "tle_line2": "2 64900  97.4345  77.1581 0001293  66.9579 293.1793 15.20210664 23375"
      },
      "geometry": {
        "type": "Point",
        "coordinates": [
          -105.08020389733885,
          -18.255451719945523
        ]
      }
    },
    {
      "type": "Feature",
      "properties": {
        "norad_id": 64901,
        "name": "CO3D 4",
        "group": "resource",
        "lat": -17.383674088340786,
        "lon": -104.95444603509827,
        "alt_km": 509.6314319194753,
        "timestamp": "2025-12-27T05:29:38.852252+00:00",
        "meta_object_name": "CO3D 4",
        "meta_object_id": "2025-156C",
        "meta_epoch": "2025-12-26T22:18:34.216416",
        "meta_mean_motion": 15.20203934,
        "meta_eccentricity": 0.00014365,
        "meta_inclination": 97.4337,
        "meta_ra_of_asc_node": 77.0932,
        "meta_arg_of_pericenter": 147.4182,
        "meta_mean_anomaly": 212.7142,
        "meta_ephemeris_type": 0,
        "meta_classification_type": "U",
        "meta_norad_cat_id": 64901,
        "meta_element_set_no": 999,
        "meta_rev_at_epoch": 2336,
        "meta_bstar": 0.00029519926,
        "meta_mean_motion_dot": 6.329e-05,
        "meta_mean_motion_ddot": 0,
        "tle_line1": "1 64901U 25156C   25360.92956269  .00006329  00000+0  29520-3 0  9993",
        "tle_line2": "2 64901  97.4337  77.0932 0001436 147.4182 212.7142 15.20203934 23366"
      },
      "geometry": {
        "type": "Point",
        "coordinates": [
          -104.95444603509827,
          -17.383674088340786
        ]
      }
    },
    {
      "type": "Feature",
      "properties": {
        "norad_id": 64902,
        "name": "CO3D 2",
        "group": "resource",
        "lat": 19.525347019061115,
        "lon": 74.63297337395848,
        "alt_km": 505.0199866221774,
        "timestamp": "2025-12-27T05:29:38.852263+00:00",
        "meta_object_name": "CO3D 2",
        "meta_object_id": "2025-156D",
        "meta_epoch": "2025-12-26T23:05:19.716000",
        "meta_mean_motion": 15.2021209,
        "meta_eccentricity": 7.745e-05,
        "meta_inclination": 97.4339,
        "meta_ra_of_asc_node": 77.0238,
        "meta_arg_of_pericenter": 61.5545,
        "meta_mean_anomaly": 298.5768,
        "meta_ephemeris_type": 0,
        "meta_classification_type": "U",
        "meta_norad_cat_id": 64902,
        "meta_element_set_no": 999,
        "meta_rev_at_epoch": 2336,
        "meta_bstar": 0.00027035646,
        "meta_mean_motion_dot": 5.791e-05,
        "meta_mean_motion_ddot": 0,
        "tle_line1": "1 64902U 25156D   25360.96203375  .00005791  00000+0  27036-3 0  9993",
        "tle_line2": "2 64902  97.4339  77.0238 0000774  61.5545 298.5768 15.20212090 23360"
      },
      "geometry": {
        "type": "Point",
        "coordinates": [
          74.63297337395848,
          19.525347019061115
        ]
      }
    }
  ]
}